OPS 6582 (TRANSIT 5B-5) 
1 00965U 64083D   23051.80909347  .00000074  00000+0  90318-4 0  9997
2 00965  90.0331 196.2393 0039961 220.9747 267.4317 13.56806983879766
OSCAR 7 (AO-7)          
1 07530U 74089B   23052.49216316 -.00000040  00000+0  36828-4 0  9992
2 07530 101.9379  38.4313 0011956 285.6195 205.5003 12.53661433208916
UOSAT 2 (UO-11)         
1 14781U 84021B   23051.93298702  .00001915  00000+0  23410-3 0  9995
2 14781  97.6455  33.4896 0007112 214.5356 145.5397 14.84337138 97898
NOAA 9                  
1 15427U 84123A   23052.56854549  .00000233  00000+0  14055-3 0  9990
2 15427  99.0788  34.2793 0014810 175.8458 293.6352 14.16295431972107
LUSAT (LO-19)           
1 20442U 90005G   23051.51448224  .00000329  00000+0  13663-3 0  9992
2 20442  98.8304  25.6274 0012118 155.9254 204.2499 14.33172093728635
ITAMSAT (IO-26)         
1 22826U 93061D   23051.90394492  .00000204  00000+0  95621-4 0  9992
2 22826  98.8532  92.6939 0009561  39.3125 320.8749 14.30603722534181
RADIO ROSTO (RS-15)     
1 23439U 94085A   23052.17263213 -.00000039  00000+0  10000-3 0  9990
2 23439  64.8168 103.3339 0165833 230.2834 128.3372 11.27573555159536
JAS-2 (FO-29)           
1 24278U 96046B   23052.54549969  .00000010  00000+0  46532-4 0  9995
2 24278  98.5193  46.9099 0350229 357.0972   2.8133 13.53133730309548
NOAA 15                 
1 25338U 98030A   23052.54692406  .00000238  00000+0  11755-3 0  9993
2 25338  98.6203  83.5074 0009337 293.3045  66.7152 14.26248597288773
TECHSAT 1B (GO-32)      
1 25397U 98043D   23051.85098929  .00000167  00000+0  92750-4 0  9991
2 25397  98.8537   8.4036 0002303 100.2052 259.9386 14.23824045278997
ISS (ZARYA)             
1 25544U 98067A   23052.59112363  .00013830  00000+0  25703-3 0  9996
2 25544  51.6383 181.0981 0005163  12.6559  96.4790 15.49183904383866
ORSTED                  
1 25635U 99008B   23052.43547596  .00001209  00000+0  29021-3 0  9990
2 25635  96.4458 223.8168 0139043 106.0183 255.6381 14.48806201266590
PHASE 3D (AO-40)        
1 26609U 00072B   23051.16311165 -.00000352  00000+0  00000+0 0  9996
2 26609   5.6217 205.4690 7950040 124.8456 335.2580  1.25589042102417
PCSAT (NO-44)           
1 26931U 01043C   23052.45019792  .00000317  00000+0  15243-3 0  9996
2 26931  67.0512 135.6498 0006258 283.3241  76.7163 14.30829547117185
SAUDISAT 1C (SO-50)     
1 27607U 02058C   23052.18840937  .00001679  00000+0  24744-3 0  9995
2 27607  64.5530 260.4434 0077819 247.2320 112.0548 14.76775932 85300
CUTE-1 (CO-55)          
1 27844U 03031E   23051.99843852  .00000541  00000+0  26142-3 0  9998
2 27844  98.6806  60.9520 0010968 101.4087 258.8323 14.22637909 19241
CUBESAT XI-IV (CO-57)   
1 27848U 03031J   23051.75912553  .00000476  00000+0  23410-3 0  9993
2 27848  98.6845  61.1732 0010758 115.3045 244.9249 14.22168172 19009
MOZHAYETS 4 (RS-22)     
1 27939U 03042A   23052.53015298  .00001941  00000+0  34765-3 0  9996
2 27939  98.2208 198.7811 0013351 139.1555 221.0651 14.67920031 37570
INMARSAT 4-F1           
1 28628U 05009A   23051.45908999 -.00000274  00000+0  00000+0 0  9996
2 28628   3.8079  37.5020 0002789 301.9853 119.3968  1.00270848 65511
NOAA 18                 
1 28654U 05018A   23052.49602144  .00000301  00000+0  18543-3 0  9998
2 28654  98.9208 127.4079 0013892 351.3299   8.7631 14.12867813915234
CUBESAT XI-V            
1 28895U 05043F   23052.33499159  .00002354  00000+0  44683-3 0  9990
2 28895  98.1338 185.4554 0017320  78.7241 281.5908 14.65058938924074
METOP-A                 
1 29499U 06044A   23052.22567053  .00002015  00000+0  27294-3 0  9993
2 29499  98.4171 109.3996 0194810 307.6905 122.0916 14.67957834850014
CARTOSAT-2 (IRS-P7)     
1 29710U 07001B   23051.63417174  .00039147  00000+0  72877-3 0  9998
2 29710  97.8765 178.5040 0121508 260.9546  97.7978 15.40931766874285
CAPE-1                  
1 31130U 07012P   23051.43497898  .00002062  00000+0  43558-3 0  9998
2 31130  98.2967 355.6877 0092580 244.5770 114.5825 14.57822875841216
CARTOSAT-2A             
1 32783U 08021A   23052.51111742  .00001016  00000+0  14541-3 0  9993
2 32783  97.9333 114.7593 0013383  84.0174 276.2556 14.78699648799821
CUTE-1.7+APD II (CO-65) 
1 32785U 08021C   23052.15431879  .00004051  00000+0  41429-3 0  9998
2 32785  97.6924  20.7875 0014018 123.8891 236.3663 14.91019415803598
COMPASS-1               
1 32787U 08021E   23052.45846878  .00010671  00000+0  89087-3 0  9999
2 32787  97.5895  31.6899 0012220  37.6343 322.5733 14.98671979805358
AAUSAT-II               
1 32788U 08021F   23051.47359825  .00011289  00000+0  89278-3 0  9990
2 32788  97.5548  33.7896 0009067  35.8983 324.2849 15.00766827805582
DELFI-C3 (DO-64)        
1 32789U 08021G   23052.29932350  .00039447  00000+0  16387-2 0  9998
2 32789  97.3180  75.5734 0009253 158.5126 201.6501 15.23665575809767
SEEDS II (CO-66)        
1 32791U 08021J   23052.48354610  .00008240  00000+0  76072-3 0  9994
2 32791  97.6438  26.3824 0014903  81.1703 279.1204 14.94790162804441
YUBILEINY (RS-30)       
1 32953U 08025A   23052.39115047  .00000024  00000+0  10000-3 0  9998
2 32953  82.5045  29.1083 0020686  77.1063 283.2329 12.43119113669261
FENGYUN 3A              
1 32958U 08026A   23052.48892195  .00000235  00000+0  13333-3 0  9996
2 32958  98.5401  10.4058 0009350  29.9649 330.2061 14.18808008763649
PRISM (HITOMI)          
1 33493U 09002B   23051.97587951  .00011049  00000+0  81652-3 0  9994
2 33493  98.2478  58.5853 0018774  77.0618 283.2700 15.03271441766270
STARS (KUKAI)           
1 33498U 09002G   23051.78136802  .00003465  00000+0  45307-3 0  9993
2 33498  98.1475 312.7646 0010662 162.3937 197.7646 14.81079279758590
KKS-1 (KISEKI)          
1 33499U 09002H   23051.93088969  .00001981  00000+0  29124-3 0  9991
2 33499  98.1886 302.6987 0007600 236.1298 123.9189 14.76596018757334
NOAA 19                 
1 33591U 09005A   23052.52614999  .00000250  00000+0  15967-3 0  9999
2 33591  99.1174  96.5188 0013560 204.8176 155.2345 14.12692237723615
SWISSCUBE               
1 35932U 09051B   23051.55805937  .00001439  00000+0  32838-3 0  9993
2 35932  98.5384 279.0619 0007882  13.9500 346.1914 14.57342603712225
BEESAT-1                
1 35933U 09051C   23052.20078416  .00001352  00000+0  30939-3 0  9995
2 35933  98.5319 281.1584 0006307  26.0500 334.1014 14.57301163712476
ITUPSAT1                
1 35935U 09051E   23052.09757048  .00001200  00000+0  28131-3 0  9992
2 35935  98.5419 281.0379 0008658  27.5689 332.5965 14.56376879712095
XIWANG-1 (HOPE-1)       
1 36122U 09072B   23052.48565148 -.00000018  00000+0  65734-4 0  9993
2 36122 100.2227  20.0907 0007970 125.7998 234.3857 13.16378095633683
CARTOSAT-2B             
1 36795U 10035A   23052.48084980  .00001812  00000+0  25345-3 0  9995
2 36795  97.9276 114.7059 0014167 155.3532 204.8350 14.78740934680869
TISAT 1                 
1 36799U 10035E   23052.06888769  .00005102  00000+0  47493-3 0  9994
2 36799  98.1533 277.1589 0011837   3.6286 356.5017 14.94724237685075
FENGYUN 3B              
1 37214U 10059A   23052.52242443  .00000183  00000+0  11948-3 0  9997
2 37214  99.0910  67.8950 0022455  15.1499 345.0345 14.14299699636169
JUGNU                   
1 37839U 11058B   23052.45104376  .00000574  00000+0  16323-3 0  9990
2 37839  19.9609 105.0882 0018979  23.1771  93.5136 14.12886047587508
SRMSAT                  
1 37841U 11058D   23051.72890668  .00000527  00000+0  14452-3 0  9997
2 37841  19.9705 194.1090 0011771 191.7017 196.4889 14.10836771586566
M-CUBED & EXP-1 PRIME   
1 37855U 11061F   23052.26938936  .00026855  00000+0  99534-3 0  9993
2 37855 101.7082 309.7579 0135719  33.7546 327.2223 15.19347233619389
HORYU-2                 
1 38340U 12025D   23051.83234984  .00003169  00000+0  44964-3 0  9998
2 38340  98.1750 138.8234 0011711 148.1890 212.0029 14.77664145579317
METOP-B                 
1 38771U 12049A   23052.43990513  .00000195  00000+0  10922-3 0  9999
2 38771  98.6951 113.6668 0001277  75.2824 296.5504 14.21489113541108
SARAL                   
1 39086U 13009A   23051.77627798  .00000214  00000+0  95870-4 0  9992
2 39086  98.5453 238.7591 0000765 269.5862  90.5234 14.32138067522022
AAUSAT 3                
1 39087U 13009B   23052.52926427  .00001673  00000+0  58389-3 0  9991
2 39087  98.3845 250.6803 0011778 243.6634 116.3306 14.36524294523338
STRAND-1                
1 39090U 13009E   23052.50994036  .00000535  00000+0  20079-3 0  9995
2 39090  98.3923 249.0127 0007975 247.0372 112.9973 14.35462582523142
BRITE-AUSTRIA           
1 39091U 13009F   23051.94326079  .00000353  00000+0  13781-3 0  9999
2 39091  98.3946 247.6707 0009349 256.6049 103.4095 14.35393161523089
UNIBRITE                
1 39092U 13009G   23051.77810300  .00000368  00000+0  14324-3 0  9996
2 39092  98.3982 247.3209 0008271 251.8831 108.1454 14.35264365523010
SOMP                    
1 39134U 13015E   23052.15837238  .00054111  00000+0  12564-2 0  9990
2 39134  64.8577 319.8362 0022125 245.5148 114.3683 15.41793797545364
BEESAT-3                
1 39135U 13015F   23052.57438142  .00040740  00000+0  12589-2 0  9998
2 39135  64.8645   2.1824 0028110 246.2707 113.5477 15.32918020544588
BEESAT-2                
1 39136U 13015G   23051.97870187  .00031978  00000+0  10535-2 0  9993
2 39136  64.8731  14.1536 0025344 285.5804  74.2532 15.31031636544312
NEE-01 PEGASO           
1 39151U 13018B   23052.56515334  .00003583  00000+0  45799-3 0  9991
2 39151  97.9989 162.6885 0016713 164.3356 195.8377 14.81934704530564
CUBEBUG-1 (CAPITAN BETO)
1 39153U 13018D   23052.57147489  .00004048  00000+0  50571-3 0  9997
2 39153  98.0257 168.1561 0016572 158.9460 201.2438 14.82826435530737
ESTCUBE 1               
1 39161U 13021C   23052.48248512  .00003358  00000+0  52161-3 0  9999
2 39161  97.8843 128.0242 0009622 350.0345  10.0582 14.73697717526134
